STARLINK-35663          
1 66491U 25263G   25342.91670139 -.00032178  00000+0 -54461-3 0  9991
2 66491  43.0003 147.4981 0001658 287.8263 241.4884 15.50594979  5020
STARLINK-35673          
1 66492U 25263H   25342.91670139 -.01002096  00000+0 -18506-1 0  9997
2 66492  43.0006 147.4939 0001549 290.6478 240.5301 15.50891307  5025
STARLINK-35597          
1 66493U 25263J   25342.91670139 -.00026849  00000+0 -45327-3 0  9992
2 66493  43.0002 147.4877 0001472 274.6335 258.5121 15.50587743  5027
STARLINK-35689          
1 66494U 25263K   25342.91670139  .00107805  00000+0  18219-2 0  9992
2 66494  43.0004 147.5031 0001564 278.7678 248.6478 15.50521551  5020
STARLINK-35832          
1 66495U 25263L   25342.91670139 -.00004704  00000+0 -74443-4 0  9992
2 66495  43.0003 147.4835 0001715 290.1550 244.9248 15.50563836  5022
STARLINK-35909          
1 66496U 25263M   25342.91670139  .00086452  00000+0  14660-2 0  9994
2 66496  43.0004 147.4787 0001722 272.8784 264.1178 15.50524641  5021
STARLINK-35899          
1 66497U 25263N   25342.91670139  .00011864  00000+0  20793-3 0  9995
2 66497  43.0005 147.4735 0001858 285.4552 253.4581 15.50554544  5023
STARLINK-35907          
1 66498U 25263P   25342.91670139 -.00388852  00000+0 -69246-2 0  9997
2 66498  43.0000 147.4688 0001192 263.0273 277.7572 15.50710286  5025
STARLINK-35816          
1 66499U 25263Q   25342.91670139  .00032884  00000+0  56464-3 0  9996
2 66499  43.0003 147.4593 0001476 276.4306 268.2274 15.50546413  5027
STARLINK-35894          
1 66500U 25263R   25342.91670139  .00052454  00000+0  89468-3 0  9994
2 66500  43.0003 147.5739 0001219 294.4550 203.4218 15.50556164  5022
STARLINK-35897          
1 66501U 25263S   25342.91670139 -.00059153  00000+0 -10091-2 0  9995
2 66501  43.0000 147.4537 0001703 293.1280 253.4273 15.50604824  5022
STARLINK-35922          
1 66502U 25263T   25342.91670139  .00068579  00000+0  11665-2 0  9994
2 66502  43.0004 147.4398 0001679 276.6330 275.6981 15.50532230  5029
