CCSDS_OMM_VERS = 2.0
CREATION_DATE  = 
ORIGINATOR     = 

OBJECT_NAME    = STARLINK-35663
OBJECT_ID      = 2025-263G
CENTER_NAME    = EARTH
REF_FRAME      = TEME
TIME_SYSTEM    = UTC
MEAN_ELEMENT_THEORY = SGP/SGP4

EPOCH          = 2025-12-08T22:00:03.000096
MEAN_MOTION    = 15.50594979
ECCENTRICITY   = .00016588
INCLINATION    = 43.0003
RA_OF_ASC_NODE = 147.4981
ARG_OF_PERICENTER = 287.8263
MEAN_ANOMALY   = 241.4884

EPHEMERIS_TYPE = 0
CLASSIFICATION_TYPE = U
NORAD_CAT_ID   = 66491
ELEMENT_SET_NO = 999
REV_AT_EPOCH   = 502
BSTAR          = -.54460538E-3
MEAN_MOTION_DOT = -.32178E-3
MEAN_MOTION_DDOT = 0

CCSDS_OMM_VERS = 2.0
CREATION_DATE  = 
ORIGINATOR     = 

OBJECT_NAME    = STARLINK-35673
OBJECT_ID      = 2025-263H
CENTER_NAME    = EARTH
REF_FRAME      = TEME
TIME_SYSTEM    = UTC
MEAN_ELEMENT_THEORY = SGP/SGP4

EPOCH          = 2025-12-08T22:00:03.000096
MEAN_MOTION    = 15.50891307
ECCENTRICITY   = .00015494
INCLINATION    = 43.0006
RA_OF_ASC_NODE = 147.4939
ARG_OF_PERICENTER = 290.6478
MEAN_ANOMALY   = 240.5301

EPHEMERIS_TYPE = 0
CLASSIFICATION_TYPE = U
NORAD_CAT_ID   = 66492
ELEMENT_SET_NO = 999
REV_AT_EPOCH   = 502
BSTAR          = -.18505831E-1
MEAN_MOTION_DOT = -.1002096E-1
MEAN_MOTION_DDOT = 0

CCSDS_OMM_VERS = 2.0
CREATION_DATE  = 
ORIGINATOR     = 

OBJECT_NAME    = STARLINK-35597
OBJECT_ID      = 2025-263J
CENTER_NAME    = EARTH
REF_FRAME      = TEME
TIME_SYSTEM    = UTC
MEAN_ELEMENT_THEORY = SGP/SGP4

EPOCH          = 2025-12-08T22:00:03.000096
MEAN_MOTION    = 15.50587743
ECCENTRICITY   = .00014722
INCLINATION    = 43.0002
RA_OF_ASC_NODE = 147.4877
ARG_OF_PERICENTER = 274.6335
MEAN_ANOMALY   = 258.5121

EPHEMERIS_TYPE = 0
CLASSIFICATION_TYPE = U
NORAD_CAT_ID   = 66493
ELEMENT_SET_NO = 999
REV_AT_EPOCH   = 502
BSTAR          = -.4532652E-3
MEAN_MOTION_DOT = -.26849E-3
MEAN_MOTION_DDOT = 0

CCSDS_OMM_VERS = 2.0
CREATION_DATE  = 
ORIGINATOR     = 

OBJECT_NAME    = STARLINK-35689
OBJECT_ID      = 2025-263K
CENTER_NAME    = EARTH
REF_FRAME      = TEME
TIME_SYSTEM    = UTC
MEAN_ELEMENT_THEORY = SGP/SGP4

EPOCH          = 2025-12-08T22:00:03.000096
MEAN_MOTION    = 15.50521551
ECCENTRICITY   = .00015644
INCLINATION    = 43.0004
RA_OF_ASC_NODE = 147.5031
ARG_OF_PERICENTER = 278.7678
MEAN_ANOMALY   = 248.6478

EPHEMERIS_TYPE = 0
CLASSIFICATION_TYPE = U
NORAD_CAT_ID   = 66494
ELEMENT_SET_NO = 999
REV_AT_EPOCH   = 502
BSTAR          = .18219372E-2
MEAN_MOTION_DOT = .107805E-2
MEAN_MOTION_DDOT = 0

CCSDS_OMM_VERS = 2.0
CREATION_DATE  = 
ORIGINATOR     = 

OBJECT_NAME    = STARLINK-35832
OBJECT_ID      = 2025-263L
CENTER_NAME    = EARTH
REF_FRAME      = TEME
TIME_SYSTEM    = UTC
MEAN_ELEMENT_THEORY = SGP/SGP4

EPOCH          = 2025-12-08T22:00:03.000096
MEAN_MOTION    = 15.50563836
ECCENTRICITY   = .0001715
INCLINATION    = 43.0003
RA_OF_ASC_NODE = 147.4835
ARG_OF_PERICENTER = 290.1550
MEAN_ANOMALY   = 244.9248

EPHEMERIS_TYPE = 0
CLASSIFICATION_TYPE = U
NORAD_CAT_ID   = 66495
ELEMENT_SET_NO = 999
REV_AT_EPOCH   = 502
BSTAR          = -.74443223E-4
MEAN_MOTION_DOT = -.4704E-4
MEAN_MOTION_DDOT = 0

CCSDS_OMM_VERS = 2.0
CREATION_DATE  = 
ORIGINATOR     = 

OBJECT_NAME    = STARLINK-35909
OBJECT_ID      = 2025-263M
CENTER_NAME    = EARTH
REF_FRAME      = TEME
TIME_SYSTEM    = UTC
MEAN_ELEMENT_THEORY = SGP/SGP4

EPOCH          = 2025-12-08T22:00:03.000096
MEAN_MOTION    = 15.50524641
ECCENTRICITY   = .00017225
INCLINATION    = 43.0004
RA_OF_ASC_NODE = 147.4787
ARG_OF_PERICENTER = 272.8784
MEAN_ANOMALY   = 264.1178

EPHEMERIS_TYPE = 0
CLASSIFICATION_TYPE = U
NORAD_CAT_ID   = 66496
ELEMENT_SET_NO = 999
REV_AT_EPOCH   = 502
BSTAR          = .14660394E-2
MEAN_MOTION_DOT = .86452E-3
MEAN_MOTION_DDOT = 0

CCSDS_OMM_VERS = 2.0
CREATION_DATE  = 
ORIGINATOR     = 

OBJECT_NAME    = STARLINK-35899
OBJECT_ID      = 2025-263N
CENTER_NAME    = EARTH
REF_FRAME      = TEME
TIME_SYSTEM    = UTC
MEAN_ELEMENT_THEORY = SGP/SGP4

EPOCH          = 2025-12-08T22:00:03.000096
MEAN_MOTION    = 15.50554544
ECCENTRICITY   = .00018581
INCLINATION    = 43.0005
RA_OF_ASC_NODE = 147.4735
ARG_OF_PERICENTER = 285.4552
MEAN_ANOMALY   = 253.4581

EPHEMERIS_TYPE = 0
CLASSIFICATION_TYPE = U
NORAD_CAT_ID   = 66497
ELEMENT_SET_NO = 999
REV_AT_EPOCH   = 502
BSTAR          = .20792672E-3
MEAN_MOTION_DOT = .11864E-3
MEAN_MOTION_DDOT = 0

CCSDS_OMM_VERS = 2.0
CREATION_DATE  = 
ORIGINATOR     = 

OBJECT_NAME    = STARLINK-35907
OBJECT_ID      = 2025-263P
CENTER_NAME    = EARTH
REF_FRAME      = TEME
TIME_SYSTEM    = UTC
MEAN_ELEMENT_THEORY = SGP/SGP4

EPOCH          = 2025-12-08T22:00:03.000096
MEAN_MOTION    = 15.50710286
ECCENTRICITY   = .00011929
INCLINATION    = 43.0000
RA_OF_ASC_NODE = 147.4688
ARG_OF_PERICENTER = 263.0273
MEAN_ANOMALY   = 277.7572

EPHEMERIS_TYPE = 0
CLASSIFICATION_TYPE = U
NORAD_CAT_ID   = 66498
ELEMENT_SET_NO = 999
REV_AT_EPOCH   = 502
BSTAR          = -.69246396E-2
MEAN_MOTION_DOT = -.388852E-2
MEAN_MOTION_DDOT = 0

CCSDS_OMM_VERS = 2.0
CREATION_DATE  = 
ORIGINATOR     = 

OBJECT_NAME    = STARLINK-35816
OBJECT_ID      = 2025-263Q
CENTER_NAME    = EARTH
REF_FRAME      = TEME
TIME_SYSTEM    = UTC
MEAN_ELEMENT_THEORY = SGP/SGP4

EPOCH          = 2025-12-08T22:00:03.000096
MEAN_MOTION    = 15.50546413
ECCENTRICITY   = .00014762
INCLINATION    = 43.0003
RA_OF_ASC_NODE = 147.4593
ARG_OF_PERICENTER = 276.4306
MEAN_ANOMALY   = 268.2274

EPHEMERIS_TYPE = 0
CLASSIFICATION_TYPE = U
NORAD_CAT_ID   = 66499
ELEMENT_SET_NO = 999
REV_AT_EPOCH   = 502
BSTAR          = .56463831E-3
MEAN_MOTION_DOT = .32884E-3
MEAN_MOTION_DDOT = 0

CCSDS_OMM_VERS = 2.0
CREATION_DATE  = 
ORIGINATOR     = 

OBJECT_NAME    = STARLINK-35894
OBJECT_ID      = 2025-263R
CENTER_NAME    = EARTH
REF_FRAME      = TEME
TIME_SYSTEM    = UTC
MEAN_ELEMENT_THEORY = SGP/SGP4

EPOCH          = 2025-12-08T22:00:03.000096
MEAN_MOTION    = 15.50556164
ECCENTRICITY   = .00012195
INCLINATION    = 43.0003
RA_OF_ASC_NODE = 147.5739
ARG_OF_PERICENTER = 294.4550
MEAN_ANOMALY   = 203.4218

EPHEMERIS_TYPE = 0
CLASSIFICATION_TYPE = U
NORAD_CAT_ID   = 66500
ELEMENT_SET_NO = 999
REV_AT_EPOCH   = 502
BSTAR          = .89468404E-3
MEAN_MOTION_DOT = .52454E-3
MEAN_MOTION_DDOT = 0

CCSDS_OMM_VERS = 2.0
CREATION_DATE  = 
ORIGINATOR     = 

OBJECT_NAME    = STARLINK-35897
OBJECT_ID      = 2025-263S
CENTER_NAME    = EARTH
REF_FRAME      = TEME
TIME_SYSTEM    = UTC
MEAN_ELEMENT_THEORY = SGP/SGP4

EPOCH          = 2025-12-08T22:00:03.000096
MEAN_MOTION    = 15.50604824
ECCENTRICITY   = .00017038
INCLINATION    = 43.0000
RA_OF_ASC_NODE = 147.4537
ARG_OF_PERICENTER = 293.1280
MEAN_ANOMALY   = 253.4273

EPHEMERIS_TYPE = 0
CLASSIFICATION_TYPE = U
NORAD_CAT_ID   = 66501
ELEMENT_SET_NO = 999
REV_AT_EPOCH   = 502
BSTAR          = -.10091348E-2
MEAN_MOTION_DOT = -.59153E-3
MEAN_MOTION_DDOT = 0

CCSDS_OMM_VERS = 2.0
CREATION_DATE  = 
ORIGINATOR     = 

OBJECT_NAME    = STARLINK-35922
OBJECT_ID      = 2025-263T
CENTER_NAME    = EARTH
REF_FRAME      = TEME
TIME_SYSTEM    = UTC
MEAN_ELEMENT_THEORY = SGP/SGP4

EPOCH          = 2025-12-08T22:00:03.000096
MEAN_MOTION    = 15.50532230
ECCENTRICITY   = .00016792
INCLINATION    = 43.0004
RA_OF_ASC_NODE = 147.4398
ARG_OF_PERICENTER = 276.6330
MEAN_ANOMALY   = 275.6981

EPHEMERIS_TYPE = 0
CLASSIFICATION_TYPE = U
NORAD_CAT_ID   = 66502
ELEMENT_SET_NO = 999
REV_AT_EPOCH   = 502
BSTAR          = .11664966E-2
MEAN_MOTION_DOT = .68579E-3
MEAN_MOTION_DDOT = 0

